[{"OBJECT_NAME":"NUSAT-33 (ALBANIA-2)","OBJECT_ID":"2023-001AQ","EPOCH":"2026-03-09T22:33:27.663264","MEAN_MOTION":15.26923259,"ECCENTRICITY":0.00076854,"INCLINATION":97.3178,"RA_OF_ASC_NODE":131.8399,"ARG_OF_PERICENTER":52.546,"MEAN_ANOMALY":307.6477,"EPHEMERIS_TYPE":0,"CLASSIFICATION_TYPE":"U","NORAD_CAT_ID":55047,"ELEMENT_SET_NO":999,"REV_AT_EPOCH":17716,"BSTAR":0.0004947656,"MEAN_MOTION_DOT":0.00013029,"MEAN_MOTION_DDOT":0},{"OBJECT_NAME":"STARLINK-31887","OBJECT_ID":"2024-097E","EPOCH":"2026-03-08T23:26:28.880160","MEAN_MOTION":15.27564903,"ECCENTRICITY":0.00011477,"INCLINATION":43.003,"RA_OF_ASC_NODE":278.7371,"ARG_OF_PERICENTER":262.3895,"MEAN_ANOMALY":97.6826,"EPHEMERIS_TYPE":0,"CLASSIFICATION_TYPE":"U","NORAD_CAT_ID":59839,"ELEMENT_SET_NO":999,"REV_AT_EPOCH":10180,"BSTAR":2.5548016e-5,"MEAN_MOTION_DOT":4.41e-6,"MEAN_MOTION_DDOT":0}]
